start=new Date('2022-11-12T00:00:00.000Z').valueOf();
sats=[{"TLE_LINE2":"2 48290  53.0534 131.1714 0001306 100.2203 259.8933 15.06378652 85343","REV_AT_EPOCH":"8534","MEAN_MOTION_DOT":"0.00002430","LAUNCH_DATE":"2021-04-29","ARG_OF_PERICENTER":"100.2203","OBJECT_ID":"2021-036Q","OBJECT_TYPE":"PAYLOAD","APOAPSIS":"548.183","SITE":"AFETR","EPOCH":"2022-11-11T18:08:44.415168","SEMIMAJOR_AXIS":"6925.414","MEAN_MOTION_DDOT":"0.0000000000000","CLASSIFICATION_TYPE":"U","REF_FRAME":"TEME","NORAD_CAT_ID":"48290","GP_ID":"217490553","DECAY_DATE":null,"INCLINATION":"53.0534","COUNTRY_CODE":"US","PERIAPSIS":"546.375","TIME_SYSTEM":"UTC","MEAN_MOTION":"15.06378652","FILE":"3651775","BSTAR":"0.00018205000000","ECCENTRICITY":"0.00013060","RA_OF_ASC_NODE":"131.1714","RCS_SIZE":"LARGE","MEAN_ELEMENT_THEORY":"SGP4","TLE_LINE1":"1 48290U 21036Q   22315.75606962  .00002430  00000-0  18205-3 0  9997","OBJECT_NAME":"STARLINK-2540","MEAN_ANOMALY":"259.8933","PERIOD":"95.593","ELEMENT_SET_NO":"999","EPHEMERIS_TYPE":"0","CENTER_NAME":"EARTH"},{"TLE_LINE2":"2 48291  53.0539 130.5907 0001268  80.0679 280.0453 15.06386735 85361","REV_AT_EPOCH":"8536","MEAN_MOTION_DOT":"-0.00000108","LAUNCH_DATE":"2021-04-29","OBJECT_TYPE":"PAYLOAD","ARG_OF_PERICENTER":"80.0679","OBJECT_ID":"2021-036R","APOAPSIS":"548.132","SITE":"AFETR","EPOCH":"2022-11-11T21:14:29.790528","MEAN_MOTION_DDOT":"0.0000000000000","SEMIMAJOR_AXIS":"6925.389","CLASSIFICATION_TYPE":"U","REF_FRAME":"TEME","GP_ID":"217491309","NORAD_CAT_ID":"48291","DECAY_DATE":null,"INCLINATION":"53.0539","COUNTRY_CODE":"US","PERIAPSIS":"546.376","MEAN_MOTION":"15.06386735","TIME_SYSTEM":"UTC","FILE":"3651775","BSTAR":"0.00001161500000","RA_OF_ASC_NODE":"130.5907","ECCENTRICITY":"0.00012680","RCS_SIZE":"LARGE","TLE_LINE1":"1 48291U 21036R   22315.88506702 -.00000108  00000-0  11615-4 0  9993","MEAN_ELEMENT_THEORY":"SGP4","OBJECT_NAME":"STARLINK-2555","PERIOD":"95.593","MEAN_ANOMALY":"280.0453","ELEMENT_SET_NO":"999","EPHEMERIS_TYPE":"0","CENTER_NAME":"EARTH"},{"SITE":"AFETR","APOAPSIS":"548.300","OBJECT_ID":"2021-036S","ARG_OF_PERICENTER":"86.9872","OBJECT_TYPE":"PAYLOAD","REF_FRAME":"TEME","CLASSIFICATION_TYPE":"U","SEMIMAJOR_AXIS":"6925.396","MEAN_MOTION_DDOT":"0.0000000000000","EPOCH":"2022-11-11T18:19:22.919808","REV_AT_EPOCH":"8534","TLE_LINE2":"2 48292  53.0539 131.3239 0001500  86.9872 273.1289 15.06384613 85349","LAUNCH_DATE":"2021-04-29","MEAN_MOTION_DOT":"0.00000594","OBJECT_NAME":"STARLINK-2542","TLE_LINE1":"1 48292U 21036S   22315.76345972  .00000594  00000-0  58786-4 0  9999","MEAN_ELEMENT_THEORY":"SGP4","RCS_SIZE":"LARGE","RA_OF_ASC_NODE":"131.3239","ECCENTRICITY":"0.00015000","EPHEMERIS_TYPE":"0","CENTER_NAME":"EARTH","ELEMENT_SET_NO":"999","MEAN_ANOMALY":"273.1289","PERIOD":"95.593","COUNTRY_CODE":"US","INCLINATION":"53.0539","DECAY_DATE":null,"NORAD_CAT_ID":"48292","GP_ID":"217492027","FILE":"3651775","BSTAR":"0.00005878600000","PERIAPSIS":"546.222","TIME_SYSTEM":"UTC","MEAN_MOTION":"15.06384613"},{"REV_AT_EPOCH":"8535","TLE_LINE2":"2 48293  53.0541 130.9386 0001443  91.2388 268.8766 15.06395128 85353","MEAN_MOTION_DOT":"0.00003665","LAUNCH_DATE":"2021-04-29","APOAPSIS":"548.228","SITE":"AFETR","ARG_OF_PERICENTER":"91.2388","OBJECT_ID":"2021-036T","OBJECT_TYPE":"PAYLOAD","CLASSIFICATION_TYPE":"U","REF_FRAME":"TEME","EPOCH":"2022-11-11T19:28:19.755264","SEMIMAJOR_AXIS":"6925.363","MEAN_MOTION_DDOT":"0.0000000000000","DECAY_DATE":null,"INCLINATION":"53.0541","COUNTRY_CODE":"US","NORAD_CAT_ID":"48293","GP_ID":"217490807","FILE":"3651775","BSTAR":"0.00026486000000","MEAN_MOTION":"15.06395128","PERIAPSIS":"546.229","TIME_SYSTEM":"UTC","MEAN_ELEMENT_THEORY":"SGP4","TLE_LINE1":"1 48293U 21036T   22315.81133976  .00003665  00000-0  26486-3 0  9998","OBJECT_NAME":"STARLINK-2550","RA_OF_ASC_NODE":"130.9386","ECCENTRICITY":"0.00014430","RCS_SIZE":"LARGE","CENTER_NAME":"EARTH","EPHEMERIS_TYPE":"0","MEAN_ANOMALY":"268.8766","PERIOD":"95.592","ELEMENT_SET_NO":"999"},{"SITE":"AFETR","APOAPSIS":"548.102","OBJECT_TYPE":"PAYLOAD","ARG_OF_PERICENTER":"107.6534","OBJECT_ID":"2021-036U","REF_FRAME":"TEME","CLASSIFICATION_TYPE":"U","MEAN_MOTION_DDOT":"0.0000000000000","SEMIMAJOR_AXIS":"6925.356","EPOCH":"2022-11-11T20:58:33.695904","REV_AT_EPOCH":"8536","TLE_LINE2":"2 48294  53.0543 130.6512 0001273 107.6534 252.4594 15.06397671 85364","LAUNCH_DATE":"2021-04-29","MEAN_MOTION_DOT":"0.00002585","OBJECT_NAME":"STARLINK-2533","TLE_LINE1":"1 48294U 21036U   22315.87400111  .00002585  00000-0  19241-3 0  9994","MEAN_ELEMENT_THEORY":"SGP4","RCS_SIZE":"LARGE","RA_OF_ASC_NODE":"130.6512","ECCENTRICITY":"0.00012730","CENTER_NAME":"EARTH","EPHEMERIS_TYPE":"0","ELEMENT_SET_NO":"999","PERIOD":"95.592","MEAN_ANOMALY":"252.4594","COUNTRY_CODE":"US","DECAY_DATE":null,"INCLINATION":"53.0543","GP_ID":"217491053","NORAD_CAT_ID":"48294","FILE":"3651775","BSTAR":"0.00019241000000","TIME_SYSTEM":"UTC","PERIAPSIS":"546.339","MEAN_MOTION":"15.06397671"},{"NORAD_CAT_ID":"48295","GP_ID":"217491809","DECAY_DATE":null,"INCLINATION":"53.0544","COUNTRY_CODE":"US","TIME_SYSTEM":"UTC","PERIAPSIS":"546.275","MEAN_MOTION":"15.06375522","FILE":"3651775","BSTAR":"0.00015541000000","RA_OF_ASC_NODE":"130.9750","ECCENTRICITY":"0.00014640","RCS_SIZE":"LARGE","MEAN_ELEMENT_THEORY":"SGP4","TLE_LINE1":"1 48295U 21036V   22315.80398863  .00002033  00000-0  15541-3 0  9995","OBJECT_NAME":"STARLINK-2535","MEAN_ANOMALY":"276.4014","PERIOD":"95.594","ELEMENT_SET_NO":"999","CENTER_NAME":"EARTH","EPHEMERIS_TYPE":"0","TLE_LINE2":"2 48295  53.0544 130.9750 0001464  83.7142 276.4014 15.06375522 85357","REV_AT_EPOCH":"8535","MEAN_MOTION_DOT":"0.00002033","LAUNCH_DATE":"2021-04-29","OBJECT_ID":"2021-036V","ARG_OF_PERICENTER":"83.7142","OBJECT_TYPE":"PAYLOAD","APOAPSIS":"548.302","SITE":"AFETR","EPOCH":"2022-11-11T19:17:44.617632","SEMIMAJOR_AXIS":"6925.424","MEAN_MOTION_DDOT":"0.0000000000000","CLASSIFICATION_TYPE":"U","REF_FRAME":"TEME"},{"BSTAR":"0.00011691000000","FILE":"3651775","PERIAPSIS":"546.322","MEAN_MOTION":"15.06390456","TIME_SYSTEM":"UTC","COUNTRY_CODE":"US","INCLINATION":"53.0537","DECAY_DATE":null,"NORAD_CAT_ID":"48296","GP_ID":"217491528","CENTER_NAME":"EARTH","EPHEMERIS_TYPE":"0","ELEMENT_SET_NO":"999","MEAN_ANOMALY":"258.2731","PERIOD":"95.593","OBJECT_NAME":"STARLINK-2546","TLE_LINE1":"1 48296U 21036W   22315.80028443  .00001460  00000-0  11691-3 0  9995","MEAN_ELEMENT_THEORY":"SGP4","RCS_SIZE":"LARGE","RA_OF_ASC_NODE":"130.9863","ECCENTRICITY":"0.00013290","LAUNCH_DATE":"2021-04-29","MEAN_MOTION_DOT":"0.00001460","REV_AT_EPOCH":"8535","TLE_LINE2":"2 48296  53.0537 130.9863 0001329 101.8407 258.2731 15.06390456 85358","REF_FRAME":"TEME","CLASSIFICATION_TYPE":"U","SEMIMAJOR_AXIS":"6925.378","MEAN_MOTION_DDOT":"0.0000000000000","EPOCH":"2022-11-11T19:12:24.574752","SITE":"AFETR","APOAPSIS":"548.163","ARG_OF_PERICENTER":"101.8407","OBJECT_ID":"2021-036W","OBJECT_TYPE":"PAYLOAD"},{"LAUNCH_DATE":"2021-04-29","MEAN_MOTION_DOT":"0.00001471","REV_AT_EPOCH":"8536","TLE_LINE2":"2 48297  53.0550 130.6989 0001443  81.2088 278.9064 15.06382632 85369","REF_FRAME":"TEME","CLASSIFICATION_TYPE":"U","MEAN_MOTION_DDOT":"0.0000000000000","SEMIMAJOR_AXIS":"6925.402","EPOCH":"2022-11-11T20:42:38.642400","SITE":"AFETR","APOAPSIS":"548.266","OBJECT_TYPE":"PAYLOAD","OBJECT_ID":"2021-036X","ARG_OF_PERICENTER":"81.2088","BSTAR":"0.00011770000000","FILE":"3651775","MEAN_MOTION":"15.06382632","PERIAPSIS":"546.267","TIME_SYSTEM":"UTC","COUNTRY_CODE":"US","INCLINATION":"53.0550","DECAY_DATE":null,"GP_ID":"217490308","NORAD_CAT_ID":"48297","CENTER_NAME":"EARTH","EPHEMERIS_TYPE":"0","ELEMENT_SET_NO":"999","PERIOD":"95.593","MEAN_ANOMALY":"278.9064","OBJECT_NAME":"STARLINK-2544","TLE_LINE1":"1 48297U 21036X   22315.86294725  .00001471  00000-0  11770-3 0  9990","MEAN_ELEMENT_THEORY":"SGP4","RCS_SIZE":"LARGE","ECCENTRICITY":"0.00014430","RA_OF_ASC_NODE":"130.6989"},{"PERIAPSIS":"546.348","MEAN_MOTION":"15.06378419","TIME_SYSTEM":"UTC","FILE":"3651775","BSTAR":"0.00019779000000","GP_ID":"217490554","NORAD_CAT_ID":"48298","COUNTRY_CODE":"US","DECAY_DATE":null,"INCLINATION":"53.0552","ELEMENT_SET_NO":"999","PERIOD":"95.594","MEAN_ANOMALY":"286.8873","EPHEMERIS_TYPE":"0","CENTER_NAME":"EARTH","RCS_SIZE":"LARGE","RA_OF_ASC_NODE":"130.7292","ECCENTRICITY":"0.00013450","OBJECT_NAME":"STARLINK-2559","TLE_LINE1":"1 48298U 21036Y   22315.85927759  .00002664  00000-0  19779-3 0  9992","MEAN_ELEMENT_THEORY":"SGP4","LAUNCH_DATE":"2021-04-29","MEAN_MOTION_DOT":"0.00002664","TLE_LINE2":"2 48298  53.0552 130.7292 0001345  73.2263 286.8873 15.06378419 85361","REV_AT_EPOCH":"8536","MEAN_MOTION_DDOT":"0.0000000000000","SEMIMAJOR_AXIS":"6925.415","EPOCH":"2022-11-11T20:37:21.583776","REF_FRAME":"TEME","CLASSIFICATION_TYPE":"U","OBJECT_TYPE":"PAYLOAD","ARG_OF_PERICENTER":"73.2263","OBJECT_ID":"2021-036Y","SITE":"AFETR","APOAPSIS":"548.211"},{"TIME_SYSTEM":"UTC","PERIAPSIS":"546.233","MEAN_MOTION":"15.06376575","BSTAR":"0.00013681000000","FILE":"3651775","NORAD_CAT_ID":"48299","GP_ID":"217491310","COUNTRY_CODE":"US","INCLINATION":"53.0545","DECAY_DATE":null,"ELEMENT_SET_NO":"999","MEAN_ANOMALY":"269.5440","PERIOD":"95.594","EPHEMERIS_TYPE":"0","CENTER_NAME":"EARTH","RCS_SIZE":"LARGE","RA_OF_ASC_NODE":"131.0229","ECCENTRICITY":"0.00015200","OBJECT_NAME":"STARLINK-2557","MEAN_ELEMENT_THEORY":"SGP4","TLE_LINE1":"1 48299U 21036Z   22315.78924283  .00001756  00000-0  13681-3 0  9991","LAUNCH_DATE":"2021-04-29","MEAN_MOTION_DOT":"0.00001756","TLE_LINE2":"2 48299  53.0545 131.0229 0001520  90.5723 269.5440 15.06376575 85354","REV_AT_EPOCH":"8535","SEMIMAJOR_AXIS":"6925.420","MEAN_MOTION_DDOT":"0.0000000000000","EPOCH":"2022-11-11T18:56:30.580512","REF_FRAME":"TEME","CLASSIFICATION_TYPE":"U","ARG_OF_PERICENTER":"90.5723","OBJECT_ID":"2021-036Z","OBJECT_TYPE":"PAYLOAD","SITE":"AFETR","APOAPSIS":"548.338"}];
